IRIDIUM 26              
1 24903U 97043A   25205.78410855  .00000362  00000+0  11515-3 0  9999
2 24903  86.3940  94.8284 0002053  80.7074 279.4356 14.37168074462617
IRIDIUM 22              
1 24907U 97043E   25205.60566984  .00000317  00000+0  10235-3 0  9997
2 24907  86.3948  98.4765 0002074  86.1848 273.9586 14.35977451462142
DUMMY MASS 1            
1 24925U 97048A   25205.83275373  .00000398  00000+0  41272-4 0  9991
2 24925  86.3360 117.9290 0007604  31.2425 328.9250 14.87010883510963
DUMMY MASS 2            
1 24926U 97048B   25205.46465285  .00000411  00000+0  42923-4 0  9994
2 24926  86.3363 119.7134 0008798  40.5564 319.6315 14.86762611510440
IRIDIUM 29              
1 24944U 97051A   25205.82425171  .00000374  00000+0  12083-3 0  9999
2 24944  86.3983 128.1186 0002304  90.1964 269.9497 14.36492021458899
IRIDIUM 33              
1 24946U 97051C   25205.28951927  .00000298  00000+0  97938-4 0  9992
2 24946  86.3899 127.6061 0006724 332.5715  27.5125 14.34911274458069
IRIDIUM 28              
1 24948U 97051E   25205.49559400  .00000322  00000+0  10134-3 0  9997
2 24948  86.3986 125.7511 0001991  72.7623 287.3792 14.37406740459202
IRIDIUM 36              
1 24967U 97056C   25205.59231719  .00000369  00000+0  11652-3 0  9991
2 24967  86.4013 157.2970 0002004  87.2027 272.9400 14.37632917457592
